KUIPER-00053            
1 64513U 25134P   25209.12537605  .00030185  00000+0  84060-3 0  9998
2 64513  51.8777 163.6048 0001582 215.5448 144.5434 15.36546432  6111
KUIPER-00054            
1 64514U 25134Q   25209.12976038  .00043158  00000+0  12016-2 0  9991
2 64514  51.8762 163.6333 0002742 209.1047 150.9787 15.36379576  6515
KUIPER-00055            
1 64515U 25134R   25209.11539672  .00029365  00000+0  80602-3 0  9991
2 64515  51.8779 163.5418 0000645 129.5855 230.5189 15.37010786  6426
KUIPER-00056            
1 64516U 25134S   25209.46008401  .00024844  00000+0  70381-3 0  9991
2 64516  51.8732 162.0916 0003548 218.9392 141.1339 15.36115568  6165
KUIPER-00057            
1 64517U 25134T   25209.47915571  .00029950  00000+0  87241-3 0  9994
2 64517  51.8696 162.2064 0006479 234.5191 125.5191 15.35126572  6278
KUIPER-00058            
1 64518U 25134U   25209.46797234  .00022868  00000+0  65595-3 0  9997
2 64518  51.8717 162.1407 0004425 230.7117 129.3477 15.35772354  6160
KUIPER-00059            
1 64519U 25134V   25209.24733115  .00037267  00000+0  10215-2 0  9999
2 64519  51.8772 162.9228 0001210 152.3379 207.7672 15.36935457  6129
KUIPER-00060            
1 64520U 25134W   25209.25233559  .00021483  00000+0  59838-3 0  9997
2 64520  51.8772 162.9582 0001850 172.3131 187.7884 15.36735904  6130
